[{"OBJECT_NAME":"DUTHSAT-2","OBJECT_ID":"2025-135C","EPOCH":"2026-03-09T21:32:17.103552","MEAN_MOTION":15.24292207,"ECCENTRICITY":0.00054547,"INCLINATION":97.4491,"RA_OF_ASC_NODE":185.111,"ARG_OF_PERICENTER":168.1696,"MEAN_ANOMALY":191.967,"EPHEMERIS_TYPE":0,"CLASSIFICATION_TYPE":"U","NORAD_CAT_ID":64530,"ELEMENT_SET_NO":999,"REV_AT_EPOCH":3979,"BSTAR":0.00073395674,"MEAN_MOTION_DOT":0.00017894,"MEAN_MOTION_DDOT":0},{"OBJECT_NAME":"SITRO-AIS-58","OBJECT_ID":"2025-313L","EPOCH":"2026-03-09T21:15:14.278752","MEAN_MOTION":15.21328621,"ECCENTRICITY":0.00155462,"INCLINATION":97.3997,"RA_OF_ASC_NODE":145.1005,"ARG_OF_PERICENTER":357.6289,"MEAN_ANOMALY":2.487,"EPHEMERIS_TYPE":0,"CLASSIFICATION_TYPE":"U","NORAD_CAT_ID":67258,"ELEMENT_SET_NO":999,"REV_AT_EPOCH":1084,"BSTAR":0.00053688387,"MEAN_MOTION_DOT":0.00011999,"MEAN_MOTION_DDOT":0}]
